[{"OBJECT_NAME":"THEOS","OBJECT_ID":"2008-049A","EPOCH":"2026-03-09T23:28:13.334304","MEAN_MOTION":14.20116597,"ECCENTRICITY":0.00010425,"INCLINATION":98.5696,"RA_OF_ASC_NODE":129.4305,"ARG_OF_PERICENTER":90.3146,"MEAN_ANOMALY":269.8151,"EPHEMERIS_TYPE":0,"CLASSIFICATION_TYPE":"U","NORAD_CAT_ID":33396,"ELEMENT_SET_NO":999,"REV_AT_EPOCH":90388,"BSTAR":-7.5504934e-5,"MEAN_MOTION_DOT":-2.03e-6,"MEAN_MOTION_DDOT":0},{"OBJECT_NAME":"CZ-6A DEB","OBJECT_ID":"2024-140FA","EPOCH":"2026-03-09T15:04:46.334784","MEAN_MOTION":14.25236303,"ECCENTRICITY":0.002937,"INCLINATION":89.0703,"RA_OF_ASC_NODE":290.382,"ARG_OF_PERICENTER":155.6183,"MEAN_ANOMALY":204.6407,"EPHEMERIS_TYPE":0,"CLASSIFICATION_TYPE":"U","NORAD_CAT_ID":60775,"ELEMENT_SET_NO":999,"REV_AT_EPOCH":8175,"BSTAR":0.00062441,"MEAN_MOTION_DOT":1.488e-5,"MEAN_MOTION_DDOT":0}]
